{"type": "FeatureCollection", "features": [ {"type": "Feature", "properties": {"norad_id": 66809, "name": "STARLINK-35979", "group": "last-30-days", "lat": 39.75917070694432, "lon": -110.25518568669331, "alt_km": 410.21974373437934, "timestamp": "2025-12-23T14:49:07.965434+00:00", "meta": {"OBJECT_NAME": "STARLINK-35979", "OBJECT_ID": "2025-278U", "EPOCH": "2025-12-23T06:00:00.999648", "MEAN_MOTION": 15.50546862, "ECCENTRICITY": 0.00022182, "INCLINATION": 42.9999, "RA_OF_ASC_NODE": 188.6658, "ARG_OF_PERICENTER": 257.387, "MEAN_ANOMALY": 278.8584, "EPHEMERIS_TYPE": 0, "CLASSIFICATION_TYPE": "U", "NORAD_CAT_ID": 66809, "ELEMENT_SET_NO": 999, "REV_AT_EPOCH": 464, "BSTAR": 0.00043810823, "MEAN_MOTION_DOT": 0.00025415, "MEAN_MOTION_DDOT": 0}, "tle": {"line1": "1 66809U 25278U   25357.25001157  .00025415  00000+0  43811-3 0  9992", "line2": "2 66809  42.9999 188.6658 0002218 257.3870 278.8584 15.50546862  4648"}}, "geometry": {"type": "Point", "coordinates": [-110.25518568669331, 39.75917070694432]}}, {"type": "Feature", "properties": {"norad_id": 66810, "name": "STARLINK-36046", "group": "last-30-days", "lat": 38.48931263717857, "lon": -114.90218892395679, "alt_km": 409.9715585275362, "timestamp": "2025-12-23T14:49:07.965444+00:00", "meta": {"OBJECT_NAME": "STARLINK-36046", "OBJECT_ID": "2025-278V", "EPOCH": "2025-12-23T06:00:00.999648", "MEAN_MOTION": 15.50539445, "ECCENTRICITY": 0.0001613, "INCLINATION": 42.9997, "RA_OF_ASC_NODE": 188.6758, "ARG_OF_PERICENTER": 267.4759, "MEAN_ANOMALY": 264.9552, "EPHEMERIS_TYPE": 0, "CLASSIFICATION_TYPE": "U", "NORAD_CAT_ID": 66810, "ELEMENT_SET_NO": 999, "REV_AT_EPOCH": 442, "BSTAR": 0.00033832633, "MEAN_MOTION_DOT": 0.00019528, "MEAN_MOTION_DDOT": 0}, "tle": {"line1": "1 66810U 25278V   25357.25001157  .00019528  00000+0  33833-3 0  9995", "line2": "2 66810  42.9997 188.6758 0001613 267.4759 264.9552 15.50539445  4421"}}, "geometry": {"type": "Point", "coordinates": [-114.90218892395679, 38.48931263717857]}}, {"type": "Feature", "properties": {"norad_id": 66811, "name": "STARLINK-36045", "group": "last-30-days", "lat": 39.14927730766106, "lon": -112.59312116466167, "alt_km": 409.92124102162416, "timestamp": "2025-12-23T14:49:07.965456+00:00", "meta": {"OBJECT_NAME": "STARLINK-36045", "OBJECT_ID": "2025-278W", "EPOCH": "2025-12-23T06:00:00.999648", "MEAN_MOTION": 15.50540097, "ECCENTRICITY": 0.00016478, "INCLINATION": 42.9998, "RA_OF_ASC_NODE": 188.6705, "ARG_OF_PERICENTER": 265.1966, "MEAN_ANOMALY": 269.1531, "EPHEMERIS_TYPE": 0, "CLASSIFICATION_TYPE": "U", "NORAD_CAT_ID": 66811, "ELEMENT_SET_NO": 999, "REV_AT_EPOCH": 464, "BSTAR": 0.0003121855, "MEAN_MOTION_DOT": 0.0001799, "MEAN_MOTION_DDOT": 0}, "tle": {"line1": "1 66811U 25278W   25357.25001157  .00017990  00000+0  31219-3 0  9993", "line2": "2 66811  42.9998 188.6705 0001647 265.1966 269.1531 15.50540097  4640"}}, "geometry": {"type": "Point", "coordinates": [-112.59312116466167, 39.14927730766106]}}, {"type": "Feature", "properties": {"norad_id": 66812, "name": "STARLINK-36054", "group": "last-30-days", "lat": 40.326995171477876, "lon": -107.84931319068083, "alt_km": 409.79096438478155, "timestamp": "2025-12-23T14:49:07.965467+00:00", "meta": {"OBJECT_NAME": "STARLINK-36054", "OBJECT_ID": "2025-278X", "EPOCH": "2025-12-23T06:00:00.999648", "MEAN_MOTION": 15.5054048, "ECCENTRICITY": 0.00016789, "INCLINATION": 42.9996, "RA_OF_ASC_NODE": 188.6609, "ARG_OF_PERICENTER": 263.826, "MEAN_ANOMALY": 274.3602, "EPHEMERIS_TYPE": 0, "CLASSIFICATION_TYPE": "U", "NORAD_CAT_ID": 66812, "ELEMENT_SET_NO": 999, "REV_AT_EPOCH": 464, "BSTAR": 0.00028172198, "MEAN_MOTION_DOT": 0.00016197, "MEAN_MOTION_DDOT": 0}, "tle": {"line1": "1 66812U 25278X   25357.25001157  .00016197  00000+0  28172-3 0  9996", "line2": "2 66812  42.9996 188.6609 0001678 263.8260 274.3602 15.50540480  4641"}}, "geometry": {"type": "Point", "coordinates": [-107.84931319068083, 40.326995171477876]}}, {"type": "Feature", "properties": {"norad_id": 66813, "name": "STARLINK-36042", "group": "last-30-days", "lat": 40.840956680756356, "lon": -105.42093848741004, "alt_km": 409.6272769153229, "timestamp": "2025-12-23T14:49:07.965477+00:00", "meta": {"OBJECT_NAME": "STARLINK-36042", "OBJECT_ID": "2025-278Y", "EPOCH": "2025-12-23T06:00:00.999648", "MEAN_MOTION": 15.50541316, "ECCENTRICITY": 0.00015833, "INCLINATION": 42.9995, "RA_OF_ASC_NODE": 188.6555, "ARG_OF_PERICENTER": 269.1784, "MEAN_ANOMALY": 270.9215, "EPHEMERIS_TYPE": 0, "CLASSIFICATION_TYPE": "U", "NORAD_CAT_ID": 66813, "ELEMENT_SET_NO": 999, "REV_AT_EPOCH": 464, "BSTAR": 0.0002899052, "MEAN_MOTION_DOT": 0.00016679, "MEAN_MOTION_DDOT": 0}, "tle": {"line1": "1 66813U 25278Y   25357.25001157  .00016679  00000+0  28991-3 0  9991", "line2": "2 66813  42.9995 188.6555 0001583 269.1784 270.9215 15.50541316  4647"}}, "geometry": {"type": "Point", "coordinates": [-105.42093848741004, 40.840956680756356]}}, {"type": "Feature", "properties": {"norad_id": 66814, "name": "STARLINK-35984", "group": "last-30-days", "lat": 42.78426300614444, "lon": -90.21073494421832, "alt_km": 409.4642859426176, "timestamp": "2025-12-23T14:49:07.965494+00:00", "meta": {"OBJECT_NAME": "STARLINK-35984", "OBJECT_ID": "2025-278Z", "EPOCH": "2025-12-23T06:00:00.999648", "MEAN_MOTION": 15.50541933, "ECCENTRICITY": 0.00017219, "INCLINATION": 42.9998, "RA_OF_ASC_NODE": 188.6272, "ARG_OF_PERICENTER": 263.4573, "MEAN_ANOMALY": 288.1356, "EPHEMERIS_TYPE": 0, "CLASSIFICATION_TYPE": "U", "NORAD_CAT_ID": 66814, "ELEMENT_SET_NO": 999, "REV_AT_EPOCH": 473, "BSTAR": 0.00035995508, "MEAN_MOTION_DOT": 0.00020804, "MEAN_MOTION_DDOT": 0}, "tle": {"line1": "1 66814U 25278Z   25357.25001157  .00020804  00000+0  35996-3 0  9990", "line2": "2 66814  42.9998 188.6272 0001721 263.4573 288.1356 15.50541933  4736"}}, "geometry": {"type": "Point", "coordinates": [-90.21073494421832, 42.78426300614444]}}, {"type": "Feature", "properties": {"norad_id": 66815, "name": "STARLINK-35985", "group": "last-30-days", "lat": 42.603037961654735, "lon": -92.80195856457664, "alt_km": 409.4860413091592, "timestamp": "2025-12-23T14:49:07.965515+00:00", "meta": {"OBJECT_NAME": "STARLINK-35985", "OBJECT_ID": "2025-278AA", "EPOCH": "2025-12-23T06:00:00.999648", "MEAN_MOTION": 15.50538125, "ECCENTRICITY": 0.00017387, "INCLINATION": 43.0001, "RA_OF_ASC_NODE": 188.6317, "ARG_OF_PERICENTER": 269.5199, "MEAN_ANOMALY": 280.1585, "EPHEMERIS_TYPE": 0, "CLASSIFICATION_TYPE": "U", "NORAD_CAT_ID": 66815, "ELEMENT_SET_NO": 999, "REV_AT_EPOCH": 473, "BSTAR": 0.00046997714, "MEAN_MOTION_DOT": 0.00027286, "MEAN_MOTION_DDOT": 0}, "tle": {"line1": "1 66815U 25278AA  25357.25001157  .00027286  00000+0  46998-3 0  9996", "line2": "2 66815  43.0001 188.6317 0001738 269.5199 280.1585 15.50538125  4738"}}, "geometry": {"type": "Point", "coordinates": [-92.80195856457664, 42.603037961654735]}}, {"type": "Feature", "properties": {"norad_id": 66816, "name": "STARLINK-36098", "group": "last-30-days", "lat": 41.30358746096115, "lon": -102.95383020615895, "alt_km": 409.6187586636661, "timestamp": "2025-12-23T14:49:07.965533+00:00", "meta": {"OBJECT_NAME": "STARLINK-36098", "OBJECT_ID": "2025-278AB", "EPOCH": "2025-12-23T06:00:00.999648", "MEAN_MOTION": 15.50540341, "ECCENTRICITY": 0.00016324, "INCLINATION": 42.9996, "RA_OF_ASC_NODE": 188.6505, "ARG_OF_PERICENTER": 265.7601, "MEAN_ANOMALY": 276.2604, "EPHEMERIS_TYPE": 0, "CLASSIFICATION_TYPE": "U", "NORAD_CAT_ID": 66816, "ELEMENT_SET_NO": 999, "REV_AT_EPOCH": 449, "BSTAR": 0.00028176015, "MEAN_MOTION_DOT": 0.00016199, "MEAN_MOTION_DDOT": 0}, "tle": {"line1": "1 66816U 25278AB  25357.25001157  .00016199  00000+0  28176-3 0  9996", "line2": "2 66816  42.9996 188.6505 0001632 265.7601 276.2604 15.50540341  4492"}}, "geometry": {"type": "Point", "coordinates": [-102.95383020615895, 41.30358746096115]}}, {"type": "Feature", "properties": {"norad_id": 66817, "name": "STARLINK-35995", "group": "last-30-days", "lat": 42.064825391686256, "lon": -97.93595766948842, "alt_km": 409.5794834035578, "timestamp": "2025-12-23T14:49:07.965555+00:00", "meta": {"OBJECT_NAME": "STARLINK-35995", "OBJECT_ID": "2025-278AC", "EPOCH": "2025-12-23T06:00:00.999648", "MEAN_MOTION": 15.50537623, "ECCENTRICITY": 0.00017443, "INCLINATION": 42.9999, "RA_OF_ASC_NODE": 188.642, "ARG_OF_PERICENTER": 262.6261, "MEAN_ANOMALY": 283.2187, "EPHEMERIS_TYPE": 0, "CLASSIFICATION_TYPE": "U", "NORAD_CAT_ID": 66817, "ELEMENT_SET_NO": 999, "REV_AT_EPOCH": 464, "BSTAR": 0.00048628434, "MEAN_MOTION_DOT": 0.00028247, "MEAN_MOTION_DDOT": 0}, "tle": {"line1": "1 66817U 25278AC  25357.25001157  .00028247  00000+0  48628-3 0  9998", "line2": "2 66817  42.9999 188.6420 0001744 262.6261 283.2187 15.50537623  4644"}}, "geometry": {"type": "Point", "coordinates": [-97.93595766948842, 42.064825391686256]}}, {"type": "Feature", "properties": {"norad_id": 66818, "name": "STARLINK-35994", "group": "last-30-days", "lat": 41.7121608724066, "lon": -100.45822417316137, "alt_km": 409.70009984527405, "timestamp": "2025-12-23T14:49:07.965575+00:00", "meta": {"OBJECT_NAME": "STARLINK-35994", "OBJECT_ID": "2025-278AD", "EPOCH": "2025-12-23T06:00:00.999648", "MEAN_MOTION": 15.5053331, "ECCENTRICITY": 0.00018412, "INCLINATION": 43.0001, "RA_OF_ASC_NODE": 188.6463, "ARG_OF_PERICENTER": 265.1438, "MEAN_ANOMALY": 278.7944, "EPHEMERIS_TYPE": 0, "CLASSIFICATION_TYPE": "U", "NORAD_CAT_ID": 66818, "ELEMENT_SET_NO": 999, "REV_AT_EPOCH": 464, "BSTAR": 0.0004734921, "MEAN_MOTION_DOT": 0.00027489, "MEAN_MOTION_DDOT": 0}, "tle": {"line1": "1 66818U 25278AD  25357.25001157  .00027489  00000+0  47349-3 0  9995", "line2": "2 66818  43.0001 188.6463 0001841 265.1438 278.7944 15.50533310  4649"}}, "geometry": {"type": "Point", "coordinates": [-100.45822417316137, 41.7121608724066]}}]}